{
  "norad_id": 63848,
  "name": "STARLINK-34010",
  "history": [
    {
      "epoch": "2026-03-28T22:06:06.720768",
      "apogee_km": 484.5676940087951,
      "perigee_km": 481.6249110453409,
      "latitude_deg": 22.8691867979971,
      "longitude_deg": -66.792532480089,
      "semi_major_axis_km": 6861.233302527067,
      "eccentricity": 0.00021445,
      "inclination_deg": 43.004,
      "raan_deg": 329.269,
      "arg_perigee_deg": 298.955,
      "mean_anomaly_deg": 61.1087,
      "mean_motion_rev_day": 15.27564235
    },
    {
      "epoch": "2026-03-29T01:14:25.539936",
      "apogee_km": 484.36745286858877,
      "perigee_km": 481.8823038162527,
      "latitude_deg": 20.1821761514938,
      "longitude_deg": -54.238288959953934,
      "semi_major_axis_km": 6861.2618783424205,
      "eccentricity": 0.0001811,
      "inclination_deg": 43.0044,
      "raan_deg": 328.5299,
      "arg_perigee_deg": 287.6022,
      "mean_anomaly_deg": 72.4632,
      "mean_motion_rev_day": 15.27554692
    }
  ]
}